NORAD_CAT_ID,OBJECT_NAME,OBJECT_TYPE,EPOCH,MEAN_MOTION,ECCENTRICITY,INCLINATION,RA_OF_ASC_NODE,ARG_OF_PERICENTER,MEAN_ANOMALY,BSTAR,MEAN_MOTION_DOT,MEAN_MOTION_DDOT,TLE_LINE0,TLE_LINE1,TLE_LINE2,SEMIMAJOR_AXIS,PERIOD,APOGEE,PERIGEE,DECAYED
49746.0,STARLINK-3233,PAYLOAD,2021-12-21 06:00:02,15.40522628,0.0001663,53.2139,231.0353,43.7322,328.4024,-0.0022989,-0.0009398,0.0,0 STARLINK-3233,1 49746U 21115Y   21355.25002315 -.00093980  00000-0 -22989-2 0  9997,2 49746  53.2139 231.0353 0001663  43.7322 328.4024 15.40522628  4089,6822.703,93.475,445.702,443.4330000000001,0.0
49746.0,STARLINK-3233,PAYLOAD,2021-12-21 14:00:01,15.40419558,0.0001543,53.2138,229.4631,52.6358,9.0572,-0.0006253,-0.00025995,0.0,0 STARLINK-3233,1 49746U 21115Y   21355.58334491 -.00025995  00000-0 -62530-3 0  9994,2 49746  53.2138 229.4631 0001543  52.6358   9.0572 15.40419558  3337,6823.007,93.481,445.925,443.819,0.0
49746.0,STARLINK-3233,PAYLOAD,2021-12-21 22:00:00,15.40389079,0.0001751,53.2136,227.8945,49.1028,62.1174,-0.00018536,-8e-05,0.0,0 STARLINK-3233,1 49746U 21115Y   21355.91667824 -.00008000  00000-0 -18536-3 0  9995,2 49746  53.2136 227.8945 0001751  49.1028  62.1174 15.40389079  3388,6823.097,93.483,446.157,443.767,0.0
49746.0,STARLINK-3233,PAYLOAD,2021-12-22 06:00:00,15.40409402,0.0001726,53.2131,226.3236,47.3862,113.3317,0.00018279,7.108e-05,0.0,0 STARLINK-3233,1 49746U 21115Y   21356.25001157  .00007108  00000-0  18279-3 0  9994,2 49746  53.2131 226.3236 0001726  47.3862 113.3317 15.40409402  4234,6823.0369999999975,93.482,446.08,443.724,0.0
49746.0,STARLINK-3233,PAYLOAD,2021-12-22 14:00:01,15.40401524,0.0001571999999999,53.2131,224.7517,54.7718,155.472,0.0015953,0.00065636,0.0,0 STARLINK-3233,1 49746U 21115Y   21356.58334491  .00065636  00000-0  15953-2 0  9995,2 49746  53.2131 224.7517 0001572  54.7718 155.4720 15.40401524  3487,6823.06,93.482,445.99800000000016,443.853,0.0
49746.0,STARLINK-3233,PAYLOAD,2021-12-22 22:00:00,15.40441296,0.0001734,53.213,223.183,49.1048,210.6839,0.00039547,0.00015883,0.0,0 STARLINK-3233,1 49746U 21115Y   21356.91667824  .00015883  00000-0  39547-3 0  9996,2 49746  53.2130 223.1830 0001734  49.1048 210.6839 15.40441296  3532,6822.943,93.48,445.991,443.625,0.0
49746.0,STARLINK-3233,PAYLOAD,2021-12-23 04:00:01,15.40468659,0.0001683,53.2133,222.005,46.1598,160.8687,-0.00029478,-0.00012509,0.0,0 STARLINK-3233,1 49746U 21115Y   21357.16668981 -.00012509  00000-0 -29478-3 0  9995,2 49746  53.2133 222.0050 0001683  46.1598 160.8687 15.40468659  4379,6822.861999999999,93.478,445.875,443.579,0.0
49746.0,STARLINK-3233,PAYLOAD,2021-12-23 14:00:01,15.40450496,0.0001440999999999,53.2146,220.0397,52.6732,306.2847,0.0014212,0.00058468,0.0,0 STARLINK-3233,1 49746U 21115Y   21357.58334491  .00058468  00000-0  14212-2 0  9998,2 49746  53.2146 220.0397 0001441  52.6732 306.2847 15.40450496  3642,6822.916,93.479,445.764,443.798,0.0
49746.0,STARLINK-3233,PAYLOAD,2021-12-23 22:00:00,15.40471836,0.0001587,53.2154,218.4709,45.7929,2.7606,-0.00032622,-0.00013799,0.0,0 STARLINK-3233,1 49746U 21115Y   21357.91667824 -.00013799  00000-0 -32622-3 0  9990,2 49746  53.2154 218.4709 0001587  45.7929   2.7606 15.40471836  3654,6822.853,93.478,445.801,443.635,0.0
49746.0,STARLINK-3233,PAYLOAD,2021-12-24 06:00:00,15.4048358,0.000155,53.2153,216.8997,44.16,53.9706,-0.0019638,-0.00080377,0.0,0 STARLINK-3233,1 49746U 21115Y   21358.25001157 -.00080377  00000-0 -19638-2 0  9996,2 49746  53.2153 216.8997 0001550  44.1600  53.9706 15.40483580  4540,6822.818,93.477,445.741,443.626,0.0
49746.0,STARLINK-3233,PAYLOAD,2021-12-24 14:00:01,15.40418202,0.0001419999999999,53.2157,215.3278,51.129,96.5867,0.00096521,0.00039437,0.0,0 STARLINK-3233,1 49746U 21115Y   21358.58334491  .00039437  00000-0  96521-3 0  9998,2 49746  53.2157 215.3278 0001420  51.1290  96.5867 15.40418202  3638,6823.011,93.481,445.845,443.907,0.0
49746.0,STARLINK-3233,PAYLOAD,2021-12-24 22:00:00,15.40432181,0.0001634,53.2159,213.7591,43.8511,153.4178,0.00049053,0.00019802,0.0,0 STARLINK-3233,1 49746U 21115Y   21358.91667824  .00019802  00000-0  49053-3 0  9996,2 49746  53.2159 213.7591 0001634  43.8511 153.4178 15.40432181  4643,6822.97,93.48,445.95,443.72,0.0
49746.0,STARLINK-3233,PAYLOAD,2021-12-25 06:00:00,15.40511611,0.0001629999999999,53.2161,212.1878,45.7554,201.1301,-0.0015556,-0.00063949,0.0,0 STARLINK-3233,1 49746U 21115Y   21359.25001157 -.00063949  00000-0 -15556-2 0  9998,2 49746  53.2161 212.1878 0001630  45.7554 201.1301 15.40511611  4691,6822.735,93.475,445.712,443.48800000000006,0.0
49746.0,STARLINK-3233,PAYLOAD,2021-12-25 14:00:01,15.40472672,0.0001506999999999,53.2165,210.6159,50.1615,246.3523,0.00039039,0.0001569,0.0,0 STARLINK-3233,1 49746U 21115Y   21359.58334491  .00015690  00000-0  39039-3 0  9995,2 49746  53.2165 210.6159 0001507  50.1615 246.3523 15.40472672  3634,6822.85,93.478,445.744,443.687,0.0
49746.0,STARLINK-3233,PAYLOAD,2021-12-25 22:00:00,15.40454269,0.0001714,53.2166,209.0473,42.9358,303.1908,0.00023345,9.206e-05,0.0,0 STARLINK-3233,1 49746U 21115Y   21359.91667824  .00009206  00000-0  23345-3 0  9990,2 49746  53.2166 209.0473 0001714  42.9358 303.1908 15.40454269  4800,6822.905,93.479,445.939,443.6,0.0
49746.0,STARLINK-3233,PAYLOAD,2021-12-26 14:00:01,15.40452623,0.000166,53.2168,205.9042,49.6301,35.6776,0.00075822,0.00030894,0.0,0 STARLINK-3233,1 49746U 21115Y   21360.58334491  .00030894  00000-0  75822-3 0  9990,2 49746  53.2168 205.9042 0001660  49.6301  35.6776 15.40452623  3633,6822.909000000002,93.479,445.907,443.642,0.0
49746.0,STARLINK-3233,PAYLOAD,2021-12-26 22:00:00,15.40463387,0.0001839,53.2167,204.3357,43.0481,91.8436,-0.00028818,-0.00012236,0.0,0 STARLINK-3233,1 49746U 21115Y   21360.91667824 -.00012236  00000-0 -28818-3 0  9991,2 49746  53.2167 204.3357 0001839  43.0481  91.8436 15.40463387  3635,6822.878000000002,93.478,445.997,443.48800000000006,0.0
49746.0,STARLINK-3233,PAYLOAD,2021-12-27 06:00:00,15.40462409,0.0001696,53.2164,202.764,42.2345,142.24,-0.00076035,-0.00031544,0.0,0 STARLINK-3233,1 49746U 21115Y   21361.25001157 -.00031544  00000-0 -76035-3 0  9997,2 49746  53.2164 202.7640 0001696  42.2345 142.2400 15.40462409  5009,6822.880999999999,93.478,445.903,443.588,0.0
49746.0,STARLINK-3233,PAYLOAD,2021-12-27 14:00:01,15.40451486,0.0001626,53.2165,201.193,48.71100000000001,185.3325,0.00038745,0.00015557,0.0,0 STARLINK-3233,1 49746U 21115Y   21361.58334491  .00015557  00000-0  38745-3 0  9993,2 49746  53.2165 201.1930 0001626  48.7110 185.3325 15.40451486  3611,6822.913000000001,93.479,445.887,443.668,0.0
49746.0,STARLINK-3233,PAYLOAD,2021-12-27 22:00:00,15.40444289,0.0001862,53.2163,199.6244,42.7623,240.8692,0.00060939,0.00024724,0.0,0 STARLINK-3233,1 49746U 21115Y   21361.91667824  .00024724  00000-0  60939-3 0  9995,2 49746  53.2163 199.6244 0001862  42.7623 240.8692 15.40444289  5106,6822.934,93.48,446.07,443.529,0.0
49746.0,STARLINK-3233,PAYLOAD,2021-12-28 14:00:01,15.40482615,0.0001629999999999,53.2159,196.4817,49.0775,333.7337,0.00021025,8.258e-05,0.0,0 STARLINK-3233,1 49746U 21115Y   21362.58334491  .00008258  00000-0  21025-3 0  9997,2 49746  53.2159 196.4817 0001630  49.0775 333.7337 15.40482615  3665,6822.821,93.477,445.798,443.574,0.0
49746.0,STARLINK-3233,PAYLOAD,2021-12-28 22:00:00,15.40468511,0.0001767,53.2158,194.9129,42.018,30.4151,-0.00018895,-8.167e-05,0.0,0 STARLINK-3233,1 49746U 21115Y   21362.91667824 -.00008167  00000-0 -18895-3 0  9995,2 49746  53.2158 194.9129 0001767  42.0180  30.4151 15.40468511  5269,6822.863,93.478,445.9330000000001,443.522,0.0
49746.0,STARLINK-3233,PAYLOAD,2021-12-29 14:00:01,15.40464049,0.000151,53.2158,191.77,45.4221,126.2647,-0.00025738,-0.00010973,0.0,0 STARLINK-3233,1 49746U 21115Y   21363.58335648 -.00010973  00000-0 -25738-3 0  9997,2 49746  53.2158 191.7700 0001510  45.4221 126.2647 15.40464049  3644,6822.876,93.478,445.771,443.711,0.0
49746.0,STARLINK-3233,PAYLOAD,2021-12-29 21:02:38,15.40461577,0.0001693,53.2164,190.3877,40.9265,319.1867,1.8442e-06,-3.28e-06,0.0,0 STARLINK-3233,1 49746U 21115Y   21363.87683509 -.00000328  00000-0  18442-5 0  9999,2 49746  53.2164 190.3877 0001693  40.9265 319.1867 15.40461577  4305,6822.8830000000025,93.478,445.903,443.593,0.0
49746.0,STARLINK-3233,PAYLOAD,2021-12-30 06:00:00,15.40466271,0.0001583,53.2159,188.6292,39.891,230.8939,-0.00030589,-0.00012963,0.0,0 STARLINK-3233,1 49746U 21115Y   21364.25001157 -.00012963  00000-0 -30589-3 0  9998,2 49746  53.2159 188.6292 0001583  39.8910 230.8939 15.40466271  5465,6822.869000000002,93.478,445.814,443.654,0.0
49746.0,STARLINK-3233,PAYLOAD,2021-12-30 14:00:01,15.40477905,0.0001573,53.2159,187.0584,44.1051,276.263,-0.00011331,-5.063e-05,0.0,0 STARLINK-3233,1 49746U 21115Y   21364.58334491 -.00005063  00000-0 -11331-3 0  9991,2 49746  53.2159 187.0584 0001573  44.1051 276.2630 15.40477905  3619,6822.835,93.477,445.773,443.627,0.0
49746.0,STARLINK-3233,PAYLOAD,2021-12-30 22:00:01,15.40464169,0.0001776,53.2159,185.4895,37.2443,332.7984,3.8606e-05,1.185e-05,0.0,0 STARLINK-3233,1 49746U 21115Y   21364.91668981  .00001185  00000-0  38606-4 0  9996,2 49746  53.2159 185.4895 0001776  37.2443 332.7984 15.40464169  3639,6822.875,93.478,445.952,443.529,0.0
49746.0,STARLINK-3233,PAYLOAD,2021-12-31 14:00:01,15.40473761,0.0001663,53.2161,182.3466,41.1468,68.0059,-0.00030709,-0.00013016,0.0,0 STARLINK-3233,1 49746U 21115Y   21365.58334491 -.00013016  00000-0 -30709-3 0  9999,2 49746  53.2161 182.3466 0001663  41.1468  68.0059 15.40473761  3649,6822.847,93.478,445.847,443.577,0.0
49746.0,STARLINK-3233,PAYLOAD,2021-12-31 21:18:50,15.40462981,0.000171,53.216,180.9103,41.6924,318.4212,4.6919e-05,1.527e-05,0.0,0 STARLINK-3233,1 49746U 21115Y   21365.88808971  .00001527  00000-0  46919-4 0  9994,2 49746  53.2160 180.9103 0001710  41.6924 318.4212 15.40462981  4618,6822.879,93.478,445.911,443.577,0.0
